NORAD_CAT_ID,OBJECT_NAME,OBJECT_TYPE,EPOCH,MEAN_MOTION,ECCENTRICITY,INCLINATION,RA_OF_ASC_NODE,ARG_OF_PERICENTER,MEAN_ANOMALY,BSTAR,MEAN_MOTION_DOT,MEAN_MOTION_DDOT,TLE_LINE0,TLE_LINE1,TLE_LINE2,SEMIMAJOR_AXIS,PERIOD,APOGEE,PERIGEE,DECAYED
53431.0,STARLINK-4548,PAYLOAD,2023-08-27 19:23:08,15.08840529,0.0001364,53.2176,295.6919,81.2464,278.8682,4.5268e-05,4.33e-06,0.0,0 STARLINK-4548,1 53431U 22097AV  23239.80773948  .00000433  00000-0  45268-4 0  9990,2 53431  53.2176 295.6919 0001364  81.2464 278.8682 15.08840529 59166,6917.879,95.438,540.687,538.8,0.0
53431.0,STARLINK-4548,PAYLOAD,2023-08-28 03:20:04,15.08838275,0.0001289,53.2169,294.2044,90.2658,269.8482,7.1772e-05,8.55e-06,0.0,0 STARLINK-4548,1 53431U 22097AV  23240.13894044  .00000855  00000-0  71772-4 0  9996,2 53431  53.2169 294.2044 0001289  90.2658 269.8482 15.08838275 58738,6917.886,95.438,540.642,538.859,0.0
53431.0,STARLINK-4548,PAYLOAD,2023-08-28 17:38:33,15.08832508,0.0001454,53.2167,291.5279,80.325,279.7906,3.2799e-05,2.34e-06,0.0,0 STARLINK-4548,1 53431U 22097AV  23240.73510597  .00000234  00000-0  32799-4 0  9997,2 53431  53.2167 291.5279 0001454  80.3250 279.7906 15.08832508 58822,6917.903,95.438,540.774,538.762,0.0
53431.0,STARLINK-4548,PAYLOAD,2023-08-28 20:49:19,15.08832851,0.0001358,53.2163,290.9326,95.3437,264.771,3.9322e-05,3.38e-06,0.0,0 STARLINK-4548,1 53431U 22097AV  23240.86758537  .00000338  00000-0  39322-4 0  9993,2 53431  53.2163 290.9326 0001358  95.3437 264.7710 15.08832851 59324,6917.902,95.438,540.707,538.828,0.0
53431.0,STARLINK-4548,PAYLOAD,2023-08-29 09:32:23,15.08842231,0.0001342,53.2156,288.554,94.275,265.8396,7.3718e-05,8.86e-06,0.0,0 STARLINK-4548,1 53431U 22097AV  23241.39749798  .00000886  00000-0  73718-4 0  9996,2 53431  53.2156 288.5540 0001342  94.2750 265.8396 15.08842231 58926,6917.874,95.437,540.667,538.81,0.0
53431.0,STARLINK-4548,PAYLOAD,2023-08-29 14:18:33,15.08845749,0.0001396,53.2159,287.6625,90.2055,269.9097,0.00013744,1.9e-05,0.0,0 STARLINK-4548,1 53431U 22097AV  23241.59621675  .00001900  00000-0  13744-3 0  9991,2 53431  53.2159 287.6625 0001396  90.2055 269.9097 15.08845749 59433,6917.863,95.437,540.694,538.762,0.0
53431.0,STARLINK-4548,PAYLOAD,2023-08-29 23:50:52,15.08833083,0.0001396,53.2156,285.8785,90.1541,269.9611,-1.0757e-05,-4.59e-06,0.0,0 STARLINK-4548,1 53431U 22097AV  23241.99366395 -.00000459  00000-0 -10757-4 0  9992,2 53431  53.2156 285.8785 0001396  90.1541 269.9611 15.08833083 59010,6917.902,95.438,540.732,538.801,0.0
53431.0,STARLINK-4548,PAYLOAD,2023-08-30 09:23:11,15.08840142,0.0001432,53.2154,284.0939,90.9365,269.1791,7.8174e-05,9.56e-06,0.0,0 STARLINK-4548,1 53431U 22097AV  23242.39110216  .00000956  00000-0  78174-4 0  9993,2 53431  53.2154 284.0939 0001432  90.9365 269.1791 15.08840142 59074,6917.88,95.438,540.736,538.754,0.0
53431.0,STARLINK-4548,PAYLOAD,2023-08-30 20:30:53,15.08841558,0.0001425,53.2155,282.0133,87.03,273.0855,8.7197e-05,1.1e-05,0.0,0 STARLINK-4548,1 53431U 22097AV  23242.85478263  .00001100  00000-0  87197-4 0  9990,2 53431  53.2155 282.0133 0001425  87.0300 273.0855 15.08841558 59625,6917.876,95.437,540.726,538.755,0.0
53431.0,STARLINK-4548,PAYLOAD,2023-08-31 10:49:21,15.08842569,0.0001444,53.2155,279.3369,87.9884,272.1274,0.00025373,3.753e-05,0.0,0 STARLINK-4548,1 53431U 22097AV  23243.45094258  .00003753  00000-0  25373-3 0  9998,2 53431  53.2155 279.3369 0001444  87.9884 272.1274 15.08842569 59237,6917.873,95.437,540.736,538.739,0.0
53431.0,STARLINK-4548,PAYLOAD,2023-09-01 12:15:31,15.08840824,0.0001424,53.215,274.5769,87.2333,272.8822,9.5678e-05,1.235e-05,0.0,0 STARLINK-4548,1 53431U 22097AV  23244.51078336  .00001235  00000-0  95678-4 0  9994,2 53431  53.2150 274.5769 0001424  87.2333 272.8822 15.08840824 59398,6917.878,95.438,540.728,538.758,0.0
53431.0,STARLINK-4548,PAYLOAD,2023-09-01 18:37:04,15.08840456,0.0001512,53.2159,273.3874,87.8518,272.2647,5.675e-05,6.15e-06,0.0,0 STARLINK-4548,1 53431U 22097AV  23244.77574303  .00000615  00000-0  56750-4 0  9996,2 53431  53.2159 273.3874 0001512  87.8518 272.2647 15.08840456 59918,6917.879,95.438,540.79,538.698,0.0
53431.0,STARLINK-4548,PAYLOAD,2023-09-02 12:06:18,15.08845233,0.0001476,53.214,270.117,91.7513,268.3648,0.00015378,2.161e-05,0.0,0 STARLINK-4548,1 53431U 22097AV  23245.50437940  .00002161  00000-0  15378-3 0  9991,2 53431  53.2140 270.1170 0001476  91.7513 268.3648 15.08845233 60029,6917.864,95.437,540.75,538.708,0.0
53431.0,STARLINK-4548,PAYLOAD,2023-09-02 18:27:50,15.08844067,0.0001476,53.2141,268.9274,91.3773,268.7388,0.00012387,1.684e-05,0.0,0 STARLINK-4548,1 53431U 22097AV  23245.76934009  .00001684  00000-0  12387-3 0  9993,2 53431  53.2141 268.9274 0001476  91.3773 268.7388 15.08844067 60067,6917.868,95.437,540.754,538.712,0.0
53431.0,STARLINK-4548,PAYLOAD,2023-09-03 10:21:42,15.08836499,0.0001544,53.2136,265.9539,93.5255,266.5913,1.4943e-05,-5e-07,0.0,0 STARLINK-4548,1 53431U 22097AV  23246.43174445 -.00000050  00000-0  14943-4 0  9996,2 53431  53.2136 265.9539 0001544  93.5255 266.5913 15.08836499 59683,6917.891,95.438,540.824,538.688,0.0
53431.0,STARLINK-4548,PAYLOAD,2023-09-03 11:57:05,15.08840562,0.0001417,53.2158,265.6564,91.2515,268.864,7.7351e-05,9.43e-06,0.0,0 STARLINK-4548,1 53431U 22097AV  23246.49798447  .00000943  00000-0  77351-4 0  9998,2 53431  53.2158 265.6564 0001417  91.2515 268.8640 15.08840562 60179,6917.879,95.438,540.724,538.763,0.0
53431.0,STARLINK-4548,PAYLOAD,2023-09-03 18:18:38,15.08833608,0.0001492,53.2164,264.467,88.6211,271.4952,2.1735e-05,5.8e-07,0.0,0 STARLINK-4548,1 53431U 22097AV  23246.76295071  .00000058  00000-0  21735-4 0  9995,2 53431  53.2164 264.4670 0001492  88.6211 271.4952 15.08833608 59736,6917.9,95.438,540.797,538.733,0.0
53431.0,STARLINK-4548,PAYLOAD,2023-09-04 05:26:20,15.08836133,0.0001452,53.2167,262.3867,95.8096,264.3061,1.84e-05,5e-08,0.0,0 STARLINK-4548,1 53431U 22097AV  23247.22663034  .00000005  00000-0  18400-4 0  9992,2 53431  53.2167 262.3867 0001452  95.8096 264.3061 15.08836133 60281,6917.892,95.438,540.762,538.753,0.0
53431.0,STARLINK-4548,PAYLOAD,2023-09-05 00:30:58,15.08835494,0.0001506,53.2165,258.8179,86.2767,273.8398,6.6067e-05,7.64e-06,0.0,0 STARLINK-4548,1 53431U 22097AV  23248.02151147  .00000764  00000-0  66067-4 0  9992,2 53431  53.2165 258.8179 0001506  86.2767 273.8398 15.08835494 59920,6917.894,95.438,540.801,538.717,0.0
53431.0,STARLINK-4548,PAYLOAD,2023-09-06 06:43:17,15.08843943,0.0001481,53.2164,253.1673,87.0741,273.0421,0.00013117,1.8e-05,0.0,0 STARLINK-4548,1 53431U 22097AV  23249.28006639  .00001800  00000-0  13117-3 0  9995,2 53431  53.2164 253.1673 0001481  87.0741 273.0421 15.08843943 60119,6917.868,95.437,540.758,538.709,0.0
53431.0,STARLINK-4548,PAYLOAD,2023-09-06 11:29:26,15.08846631,0.0001476,53.2162,252.2755,84.4766,275.6394,0.00013157,1.807e-05,0.0,0 STARLINK-4548,1 53431U 22097AV  23249.47878433  .00001807  00000-0  13157-3 0  9996,2 53431  53.2162 252.2755 0001476  84.4766 275.6394 15.08846631 60620,6917.86,95.437,540.746,538.704,0.0
53431.0,STARLINK-4548,PAYLOAD,2023-09-06 17:51:00,15.08840114,0.000155,53.2163,251.0871,78.5284,281.5882,7.1147e-05,8.44e-06,0.0,0 STARLINK-4548,1 53431U 22097AV  23249.74375017  .00000844  00000-0  71147-4 0  9990,2 53431  53.2163 251.0871 0001550  78.5284 281.5882 15.08840114 60188,6917.88,95.438,540.817,538.673,0.0
53431.0,STARLINK-4548,PAYLOAD,2023-09-07 11:20:14,15.08842509,0.0001269,53.2157,247.8153,72.1644,287.9486,7.6713e-05,9.33e-06,0.0,0 STARLINK-4548,1 53431U 22097AV  23250.47238787  .00000933  00000-0  76713-4 0  9997,2 53431  53.2157 247.8153 0001269  72.1644 287.9486 15.08842509 60779,6917.873,95.437,540.616,538.86,0.0
53431.0,STARLINK-4548,PAYLOAD,2023-09-08 00:03:19,15.08840567,0.000175,53.2155,245.4346,88.3375,271.7817,-4.058e-05,-9.34e-06,0.0,0 STARLINK-4548,1 53431U 22097AV  23251.00231278 -.00000934  00000-0 -40580-4 0  9991,2 53431  53.2155 245.4346 0001750  88.3375 271.7817 15.08840567 60377,6917.879,95.438,540.954,538.533,0.0
53431.0,STARLINK-4548,PAYLOAD,2023-09-08 11:11:01,15.08855142,0.0001661,53.2165,243.3517,101.0226,259.0953,-0.00017118,-3.013e-05,0.0,0 STARLINK-4548,1 53431U 22097AV  23251.46598647 -.00003013  00000-0 -17118-3 0  9998,2 53431  53.2165 243.3517 0001661 101.0226 259.0953 15.08855142 60920,6917.834,95.437,540.848,538.55,0.0
53431.0,STARLINK-4548,PAYLOAD,2023-09-08 23:54:06,15.08835053,0.0001573,53.2166,240.9724,102.8692,257.2476,4.4572e-05,4.21e-06,0.0,0 STARLINK-4548,1 53431U 22097AV  23251.99591364  .00000421  00000-0  44572-4 0  9998,2 53431  53.2166 240.9724 0001573 102.8692 257.2476 15.08835053 60527,6917.896,95.438,540.849,538.672,0.0
53431.0,STARLINK-4548,PAYLOAD,2023-09-09 11:01:48,15.08841178,0.0001444,53.2163,238.8933,93.5404,266.5753,0.00011717,1.577e-05,0.0,0 STARLINK-4548,1 53431U 22097AV  23252.45958906  .00001577  00000-0  11717-3 0  9996,2 53431  53.2163 238.8933 0001444  93.5404 266.5753 15.08841178 61073,6917.877,95.437,540.741,538.743,0.0
53431.0,STARLINK-4548,PAYLOAD,2023-09-10 09:17:12,15.0884421,0.0001346,53.216,234.7293,88.9464,271.1682,0.00010271,1.347e-05,0.0,0 STARLINK-4548,1 53431U 22097AV  23253.38694908  .00001347  00000-0  10271-3 0  9997,2 53431  53.2160 234.7293 0001346  88.9464 271.1682 15.08844210 60734,6917.868,95.437,540.664,538.801,0.0
53431.0,STARLINK-4548,PAYLOAD,2023-09-11 02:46:28,15.08831639,0.0001391,53.2167,231.4584,94.635,265.4801,-3.3002e-05,-8.13e-06,0.0,0 STARLINK-4548,1 53431U 22097AV  23254.11560330 -.00000813  00000-0 -33002-4 0  9997,2 53431  53.2167 231.4584 0001391  94.6350 265.4801 15.08831639 60848,6917.906,95.438,540.733,538.809,0.0
53431.0,STARLINK-4548,PAYLOAD,2023-09-11 10:43:23,15.08838953,0.0001381,53.2166,229.9712,93.6349,266.4802,2.7015e-05,1.42e-06,0.0,0 STARLINK-4548,1 53431U 22097AV  23254.44679795  .00000142  00000-0  27015-4 0  9999,2 53431  53.2166 229.9712 0001381  93.6349 266.4802 15.08838953 61375,6917.884,95.438,540.704,538.793,0.0
